QIANFAN-57              
1 62787U 25016C   25283.27784575  .00000046  00000+0  52431-4 0  9997
2 62787  88.9751 109.7526 0001616  60.4028 299.7284 13.50974668 38634
QIANFAN-58              
1 62788U 25016D   25283.24899353  .00000051  00000+0  59875-4 0  9991
2 62788  88.9719 109.6067 0014303 160.0085 200.1630 13.50974198 38678
QIANFAN-59              
1 62789U 25016E   25283.27366140  .00000046  00000+0  52760-4 0  9998
2 62789  88.9743 109.6628 0014561 163.7683 196.3937 13.50973505 38676
QIANFAN-60              
1 62790U 25016F   25273.45632892  .00000063  00000+0  77135-4 0  9991
2 62790  88.9732 110.6637 0014892 189.3455 170.7422 13.52524324 37336
QIANFAN-61              
1 62791U 25016G   25283.26541090  .00000041  00000+0  44008-4 0  9990
2 62791  88.9792 109.7669 0015150 159.9731 200.2018 13.50973830 38671
QIANFAN-62              
1 62792U 25016H   25283.26963030  .00000042  00000+0  46124-4 0  9995
2 62792  88.9738 109.6692 0016518 160.8898 199.2876 13.50967809 38668
QIANFAN-63              
1 62793U 25016J   25283.29422951  .00000066  00000+0  84109-4 0  9992
2 62793  88.9742 109.6139 0016422 166.0552 194.1056 13.50970787 38707
QIANFAN-64              
1 62794U 25016K   25283.26131157  .00000051  00000+0  59559-4 0  9990
2 62794  88.9731 109.6000 0014567 158.4237 201.7531 13.50972397 38696
